{
  "norad_id": 61599,
  "name": "ONEWEB-0691",
  "history": [
    {
      "epoch": "2026-03-28T20:31:44.362848Z",
      "apogee_km": 1218.7669270404276,
      "perigee_km": 1216.596801590893,
      "latitude_deg": 3.7002635086202326e-05,
      "longitude_deg": -97.27837540111433,
      "height_km": 1220.3651636811715,
      "semi_major_axis_km": 7595.81886431566,
      "eccentricity": 0.00014285,
      "inclination_deg": 87.891,
      "raan_deg": 36.9263,
      "arg_perigee_deg": 79.1872,
      "mean_anomaly_deg": 280.9417,
      "mean_motion_rev_day": 13.11417161
    },
    {
      "epoch": "2026-03-29T02:01:20.582400Z",
      "apogee_km": 1218.7677403805828,
      "perigee_km": 1216.6029310149088,
      "latitude_deg": -2.675398308443588e-05,
      "longitude_deg": -179.95039823881092,
      "height_km": 1220.3701281721578,
      "semi_major_axis_km": 7595.822335697746,
      "eccentricity": 0.0001425,
      "inclination_deg": 87.8911,
      "raan_deg": 36.8808,
      "arg_perigee_deg": 79.24,
      "mean_anomaly_deg": 280.8888,
      "mean_motion_rev_day": 13.11416262
    },
    {
      "epoch": "2026-03-30T03:39:29.218464Z",
      "apogee_km": 1218.765683395478,
      "perigee_km": 1216.5978367213565,
      "latitude_deg": -1.1485441846148402e-05,
      "longitude_deg": 154.24849724943647,
      "height_km": 1220.3891043112856,
      "semi_major_axis_km": 7595.818760058417,
      "eccentricity": 0.0001427,
      "inclination_deg": 87.8915,
      "raan_deg": 36.6685,
      "arg_perigee_deg": 80.4666,
      "mean_anomaly_deg": 279.6623,
      "mean_motion_rev_day": 13.11417188
    },
    {
      "epoch": "2026-03-30T05:29:21.267168Z",
      "apogee_km": 1218.7662060985067,
      "perigee_km": 1216.5971441176434,
      "latitude_deg": -2.4148014929540036e-05,
      "longitude_deg": 126.69132565697983,
      "height_km": 1220.3903154650984,
      "semi_major_axis_km": 7595.818675108075,
      "eccentricity": 0.00014278,
      "inclination_deg": 87.8915,
      "raan_deg": 36.6534,
      "arg_perigee_deg": 80.5414,
      "mean_anomaly_deg": 279.5875,
      "mean_motion_rev_day": 13.1141721
    },
    {
      "epoch": "2026-03-30T14:38:41.453664Z",
      "apogee_km": 1218.767206668951,
      "perigee_km": 1216.5908534600176,
      "latitude_deg": 1.3779446053838022e-05,
      "longitude_deg": -11.094690346270188,
      "height_km": 1220.3902386110312,
      "semi_major_axis_km": 7595.816030064484,
      "eccentricity": 0.00014326,
      "inclination_deg": 87.8916,
      "raan_deg": 36.5775,
      "arg_perigee_deg": 80.7111,
      "mean_anomaly_deg": 279.4179,
      "mean_motion_rev_day": 13.11417895
    },
    {
      "epoch": "2026-03-30T21:58:09.627744Z",
      "apogee_km": 1218.761162191894,
      "perigee_km": 1216.5971141741256,
      "latitude_deg": 7.018024453220068e-06,
      "longitude_deg": -121.32348847184942,
      "height_km": 1220.3906603792689,
      "semi_major_axis_km": 7595.81613818301,
      "eccentricity": 0.00014245,
      "inclination_deg": 87.8917,
      "raan_deg": 36.5169,
      "arg_perigee_deg": 80.6738,
      "mean_anomaly_deg": 279.4551,
      "mean_motion_rev_day": 13.11417867
    },
    {
      "epoch": "2026-03-31T19:56:34.018656Z",
      "apogee_km": 1218.7636355629857,
      "perigee_km": 1216.5897136893082,
      "latitude_deg": 3.505773534590873e-06,
      "longitude_deg": -92.00943332981262,
      "height_km": 1220.3998227294846,
      "semi_major_axis_km": 7595.813674626146,
      "eccentricity": 0.0001431,
      "inclination_deg": 87.8919,
      "raan_deg": 36.335,
      "arg_perigee_deg": 81.3375,
      "mean_anomaly_deg": 278.7915,
      "mean_motion_rev_day": 13.11418505
    },
    {
      "epoch": "2026-04-01T14:15:14.255136Z",
      "apogee_km": 1218.7615887432175,
      "perigee_km": 1216.5876674552546,
      "latitude_deg": 7.156074646294086e-05,
      "longitude_deg": -7.5806951774078914,
      "height_km": 1220.412301877832,
      "semi_major_axis_km": 7595.811628099235,
      "eccentricity": 0.0001431,
      "inclination_deg": 87.892,
      "raan_deg": 36.1834,
      "arg_perigee_deg": 82.1118,
      "mean_anomaly_deg": 278.0173,
      "mean_motion_rev_day": 13.11419035
    },
    {
      "epoch": "2026-04-02T14:03:30.490848Z",
      "apogee_km": 1218.7585043277259,
      "perigee_km": 1216.5851915001604,
      "latitude_deg": 6.866121099976838e-05,
      "longitude_deg": -5.822859658577919,
      "height_km": 1220.4130906545684,
      "semi_major_axis_km": 7595.808847913942,
      "eccentricity": 0.00014306,
      "inclination_deg": 87.8923,
      "raan_deg": 35.9865,
      "arg_perigee_deg": 82.2993,
      "mean_anomaly_deg": 277.8298,
      "mean_motion_rev_day": 13.11419755
    },
    {
      "epoch": "2026-04-02T21:22:58.577664Z",
      "apogee_km": 1218.7552137204411,
      "perigee_km": 1216.587370033939,
      "latitude_deg": -7.890327357991403e-06,
      "longitude_deg": -116.05149588366969,
      "height_km": 1220.421407023494,
      "semi_major_axis_km": 7595.80829187719,
      "eccentricity": 0.0001427,
      "inclination_deg": 87.8925,
      "raan_deg": 35.9257,
      "arg_perigee_deg": 82.7518,
      "mean_anomaly_deg": 277.3772,
      "mean_motion_rev_day": 13.11419899
    },
    {
      "epoch": "2026-04-03T21:11:14.719200Z",
      "apogee_km": 1218.7648980281474,
      "perigee_km": 1216.571229525729,
      "latitude_deg": -1.8732482170761606e-05,
      "longitude_deg": -114.29336808071606,
      "height_km": 1220.4258522544144,
      "semi_major_axis_km": 7595.805063776938,
      "eccentricity": 0.0001444,
      "inclination_deg": 87.8928,
      "raan_deg": 35.7287,
      "arg_perigee_deg": 83.2427,
      "mean_anomaly_deg": 276.8865,
      "mean_motion_rev_day": 13.11420735
    },
    {
      "epoch": "2026-04-04T20:59:30.866784Z",
      "apogee_km": 1218.7723676081332,
      "perigee_km": 1216.5650264725737,
      "latitude_deg": -4.693614410549279e-05,
      "longitude_deg": -112.5352670323892,
      "height_km": 1220.440713082666,
      "semi_major_axis_km": 7595.805697040353,
      "eccentricity": 0.0001453,
      "inclination_deg": 87.8927,
      "raan_deg": 35.5317,
      "arg_perigee_deg": 84.0286,
      "mean_anomaly_deg": 276.1007,
      "mean_motion_rev_day": 13.11420571
    }
  ]
}